JY1SAT (JO-97)          
1 43803U 18099AX  26068.68634132  .00017774  00000+0  60804-3 0  9996
2 43803  97.4249 131.3625 0004723 256.6795 103.3919 15.30302628398390
STARLINK-2164           
1 47750U 21017AE  26068.56360510  .00016705  00000+0  57481-3 0  9998
2 47750  53.1593 194.1029 0001169  99.5970 260.5163 15.30202781277977
